[{"OBJECT_NAME":"STARLINK-11319 [DTC]","OBJECT_ID":"2024-175J","EPOCH":"2026-03-09T04:32:00.305088","MEAN_MOTION":15.6970191,"ECCENTRICITY":8.194e-5,"INCLINATION":53.1591,"RA_OF_ASC_NODE":59.0405,"ARG_OF_PERICENTER":78.1674,"MEAN_ANOMALY":281.9436,"EPHEMERIS_TYPE":0,"CLASSIFICATION_TYPE":"U","NORAD_CAT_ID":61251,"ELEMENT_SET_NO":999,"REV_AT_EPOCH":8328,"BSTAR":1.855437e-5,"MEAN_MOTION_DOT":1.659e-5,"MEAN_MOTION_DDOT":0},{"OBJECT_NAME":"CUSAT 1","OBJECT_ID":"2013-055B","EPOCH":"2026-03-09T21:41:15.188064","MEAN_MOTION":15.74002725,"ECCENTRICITY":0.01371406,"INCLINATION":80.9316,"RA_OF_ASC_NODE":114.3179,"ARG_OF_PERICENTER":168.8133,"MEAN_ANOMALY":191.6233,"EPHEMERIS_TYPE":0,"CLASSIFICATION_TYPE":"U","NORAD_CAT_ID":39266,"ELEMENT_SET_NO":999,"REV_AT_EPOCH":65726,"BSTAR":0.00064915357,"MEAN_MOTION_DOT":0.00168895,"MEAN_MOTION_DDOT":7.654948e-6}]
